start=new Date('2023-04-27T00:00:00.000Z').valueOf();
sats=[{"TIME_SYSTEM":"UTC","LAUNCH_DATE":"2022-04-29","PERIAPSIS":"538.569","SITE":"AFETR","CLASSIFICATION_TYPE":"U","SEMIMAJOR_AXIS":"6917.833","DECAY_DATE":null,"ARG_OF_PERICENTER":"142.0100","MEAN_ELEMENT_THEORY":"SGP4","ELEMENT_SET_NO":"999","REF_FRAME":"TEME","MEAN_MOTION_DOT":"-0.00020634","COUNTRY_CODE":"US","PERIOD":"95.437","CENTER_NAME":"EARTH","OBJECT_ID":"2022-045M","MEAN_MOTION":"15.08855656","MEAN_ANOMALY":"218.1008","EPOCH":"2023-04-26T15:57:54.615744","TLE_LINE2":"2 52342  53.2158 223.8956 0001631 142.0100 218.1008 15.08855656 57568","INCLINATION":"53.2158","RA_OF_ASC_NODE":"223.8956","BSTAR":"-0.00128150000000","RCS_SIZE":"LARGE","GP_ID":"230801008","MEAN_MOTION_DDOT":"0.0000000000000","OBJECT_NAME":"STARLINK-3850","TLE_LINE1":"1 52342U 22045M   23116.66521546 -.00020634  00000-0 -12815-2 0  9993","FILE":"3894261","OBJECT_TYPE":"PAYLOAD","EPHEMERIS_TYPE":"0","APOAPSIS":"540.826","ECCENTRICITY":"0.00016310","NORAD_CAT_ID":"52342","REV_AT_EPOCH":"5756"},{"ELEMENT_SET_NO":"999","MEAN_ELEMENT_THEORY":"SGP4","SEMIMAJOR_AXIS":"6917.875","ARG_OF_PERICENTER":"121.7236","DECAY_DATE":null,"CLASSIFICATION_TYPE":"U","PERIAPSIS":"538.821","SITE":"AFETR","LAUNCH_DATE":"2022-04-29","TIME_SYSTEM":"UTC","EPOCH":"2023-04-26T17:51:49.942656","MEAN_MOTION":"15.08841908","MEAN_ANOMALY":"238.3885","OBJECT_ID":"2022-045N","CENTER_NAME":"EARTH","PERIOD":"95.437","COUNTRY_CODE":"US","REF_FRAME":"TEME","MEAN_MOTION_DOT":"0.00015723","MEAN_MOTION_DDOT":"0.0000000000000","RCS_SIZE":"LARGE","GP_ID":"230801259","BSTAR":"0.00100370000000","RA_OF_ASC_NODE":"233.5266","TLE_LINE2":"2 52343  53.2180 233.5266 0001328 121.7236 238.3885 15.08841908 57442","INCLINATION":"53.2180","NORAD_CAT_ID":"52343","REV_AT_EPOCH":"5744","EPHEMERIS_TYPE":"0","APOAPSIS":"540.658","ECCENTRICITY":"0.00013280","FILE":"3894261","OBJECT_TYPE":"PAYLOAD","TLE_LINE1":"1 52343U 22045N   23116.74432804  .00015723  00000-0  10037-2 0  9996","OBJECT_NAME":"STARLINK-3849"},{"REV_AT_EPOCH":"5756","NORAD_CAT_ID":"52344","OBJECT_TYPE":"PAYLOAD","FILE":"3894261","ECCENTRICITY":"0.00011390","APOAPSIS":"540.557","EPHEMERIS_TYPE":"0","OBJECT_NAME":"STARLINK-3851","TLE_LINE1":"1 52344U 22045P   23116.66429720  .00017631  00000-0  11233-2 0  9990","GP_ID":"230800007","RCS_SIZE":"LARGE","MEAN_MOTION_DDOT":"0.0000000000000","BSTAR":"0.00112330000000","INCLINATION":"53.2157","TLE_LINE2":"2 52344  53.2157 223.9565 0001139 122.8724 237.2378 15.08832137 57568","RA_OF_ASC_NODE":"223.9565","MEAN_ANOMALY":"237.2378","MEAN_MOTION":"15.08832137","EPOCH":"2023-04-26T15:56:35.278080","OBJECT_ID":"2022-045P","PERIOD":"95.438","COUNTRY_CODE":"US","CENTER_NAME":"EARTH","MEAN_MOTION_DOT":"0.00017631","REF_FRAME":"TEME","MEAN_ELEMENT_THEORY":"SGP4","ELEMENT_SET_NO":"999","CLASSIFICATION_TYPE":"U","DECAY_DATE":null,"ARG_OF_PERICENTER":"122.8724","SEMIMAJOR_AXIS":"6917.904","LAUNCH_DATE":"2022-04-29","SITE":"AFETR","PERIAPSIS":"538.981","TIME_SYSTEM":"UTC"},{"MEAN_MOTION_DOT":"-0.00003894","REF_FRAME":"TEME","CENTER_NAME":"EARTH","COUNTRY_CODE":"US","PERIOD":"95.437","OBJECT_ID":"2022-045Q","EPOCH":"2023-04-26T16:12:26.376192","MEAN_ANOMALY":"249.5186","MEAN_MOTION":"15.08856645","TIME_SYSTEM":"UTC","SITE":"AFETR","PERIAPSIS":"539.003","LAUNCH_DATE":"2022-04-29","ARG_OF_PERICENTER":"110.5913","DECAY_DATE":null,"SEMIMAJOR_AXIS":"6917.830","CLASSIFICATION_TYPE":"U","ELEMENT_SET_NO":"999","MEAN_ELEMENT_THEORY":"SGP4","TLE_LINE1":"1 52345U 22045Q   23116.67530528 -.00003894  00000-0 -22660-3 0  9996","OBJECT_NAME":"STARLINK-3852","APOAPSIS":"540.386","ECCENTRICITY":"0.00009990","EPHEMERIS_TYPE":"0","OBJECT_TYPE":"PAYLOAD","FILE":"3894261","REV_AT_EPOCH":"5755","NORAD_CAT_ID":"52345","RA_OF_ASC_NODE":"223.8399","INCLINATION":"53.2186","TLE_LINE2":"2 52345  53.2186 223.8399 0000999 110.5913 249.5186 15.08856645 57554","BSTAR":"-0.00022660000000","MEAN_MOTION_DDOT":"0.0000000000000","GP_ID":"230800257","RCS_SIZE":"LARGE"},{"REV_AT_EPOCH":"5757","NORAD_CAT_ID":"52346","APOAPSIS":"540.597","ECCENTRICITY":"0.00013210","EPHEMERIS_TYPE":"0","FILE":"3894261","OBJECT_TYPE":"PAYLOAD","TLE_LINE1":"1 52346U 22045R   23116.72410570  .00021109  00000-0  13397-2 0  9990","OBJECT_NAME":"STARLINK-3812","MEAN_MOTION_DDOT":"0.0000000000000","GP_ID":"230800509","RCS_SIZE":"LARGE","BSTAR":"0.00133970000000","RA_OF_ASC_NODE":"223.6323","INCLINATION":"53.2148","TLE_LINE2":"2 52346  53.2148 223.6323 0001321  78.1823 281.9317 15.08860238 57578","EPOCH":"2023-04-26T17:22:42.732480","MEAN_ANOMALY":"281.9317","MEAN_MOTION":"15.08860238","OBJECT_ID":"2022-045R","CENTER_NAME":"EARTH","COUNTRY_CODE":"US","PERIOD":"95.436","MEAN_MOTION_DOT":"0.00021109","REF_FRAME":"TEME","ELEMENT_SET_NO":"999","MEAN_ELEMENT_THEORY":"SGP4","DECAY_DATE":null,"ARG_OF_PERICENTER":"78.1823","SEMIMAJOR_AXIS":"6917.819","CLASSIFICATION_TYPE":"U","SITE":"AFETR","PERIAPSIS":"538.770","LAUNCH_DATE":"2022-04-29","TIME_SYSTEM":"UTC"},{"PERIAPSIS":"538.562","SITE":"AFETR","LAUNCH_DATE":"2022-04-29","TIME_SYSTEM":"UTC","ELEMENT_SET_NO":"999","MEAN_ELEMENT_THEORY":"SGP4","SEMIMAJOR_AXIS":"6917.918","ARG_OF_PERICENTER":"62.9969","DECAY_DATE":null,"CLASSIFICATION_TYPE":"U","CENTER_NAME":"EARTH","PERIOD":"95.438","COUNTRY_CODE":"US","REF_FRAME":"TEME","MEAN_MOTION_DOT":"0.00000432","EPOCH":"2023-04-26T16:03:15.287616","MEAN_MOTION":"15.08827856","MEAN_ANOMALY":"297.1203","OBJECT_ID":"2022-045S","RA_OF_ASC_NODE":"223.8769","TLE_LINE2":"2 52347  53.2152 223.8769 0001764  62.9969 297.1203 15.08827856 57564","INCLINATION":"53.2152","MEAN_MOTION_DDOT":"0.0000000000000","RCS_SIZE":"LARGE","GP_ID":"230800760","BSTAR":"0.00004522400000","EPHEMERIS_TYPE":"0","APOAPSIS":"541.003","ECCENTRICITY":"0.00017640","FILE":"3894261","OBJECT_TYPE":"PAYLOAD","TLE_LINE1":"1 52347U 22045S   23116.66892694  .00000432  00000-0  45224-4 0  9997","OBJECT_NAME":"STARLINK-3826","NORAD_CAT_ID":"52347","REV_AT_EPOCH":"5756"},{"MEAN_ELEMENT_THEORY":"SGP4","ELEMENT_SET_NO":"999","CLASSIFICATION_TYPE":"U","ARG_OF_PERICENTER":"144.0390","DECAY_DATE":null,"SEMIMAJOR_AXIS":"6918.032","LAUNCH_DATE":"2022-04-29","SITE":"AFETR","PERIAPSIS":"538.542","TIME_SYSTEM":"UTC","MEAN_ANOMALY":"216.0734","MEAN_MOTION":"15.08790501","EPOCH":"2023-04-26T17:10:46.282944","OBJECT_ID":"2022-045T","PERIOD":"95.441","COUNTRY_CODE":"US","CENTER_NAME":"EARTH","MEAN_MOTION_DOT":"0.00013170","REF_FRAME":"TEME","GP_ID":"230799509","RCS_SIZE":"LARGE","MEAN_MOTION_DDOT":"0.0000000000000","BSTAR":"0.00084515000000","INCLINATION":"53.2179","TLE_LINE2":"2 52348  53.2179 223.6553 0001958 144.0390 216.0734 15.08790501 57574","RA_OF_ASC_NODE":"223.6553","REV_AT_EPOCH":"5757","NORAD_CAT_ID":"52348","OBJECT_TYPE":"PAYLOAD","FILE":"3894261","ECCENTRICITY":"0.00019580","APOAPSIS":"541.251","EPHEMERIS_TYPE":"0","OBJECT_NAME":"STARLINK-3829","TLE_LINE1":"1 52348U 22045T   23116.71581346  .00013170  00000-0  84515-3 0  9991"},{"MEAN_ELEMENT_THEORY":"SGP4","ELEMENT_SET_NO":"999","CLASSIFICATION_TYPE":"U","SEMIMAJOR_AXIS":"6917.910","ARG_OF_PERICENTER":"118.3067","DECAY_DATE":null,"LAUNCH_DATE":"2022-04-29","PERIAPSIS":"539.038","SITE":"AFETR","TIME_SYSTEM":"UTC","MEAN_MOTION":"15.08830442","MEAN_ANOMALY":"241.8033","EPOCH":"2023-04-26T11:05:06.277344","OBJECT_ID":"2022-045U","PERIOD":"95.438","COUNTRY_CODE":"US","CENTER_NAME":"EARTH","REF_FRAME":"TEME","MEAN_MOTION_DOT":"0.00018441","RCS_SIZE":"LARGE","GP_ID":"230773254","MEAN_MOTION_DDOT":"0.0000000000000","BSTAR":"0.00117400000000","TLE_LINE2":"2 52349  53.2161 224.7990 0001065 118.3067 241.8033 15.08830442 57530","INCLINATION":"53.2161","RA_OF_ASC_NODE":"224.7990","NORAD_CAT_ID":"52349","REV_AT_EPOCH":"5753","FILE":"3894260","OBJECT_TYPE":"PAYLOAD","EPHEMERIS_TYPE":"0","ECCENTRICITY":"0.00010650","APOAPSIS":"540.511","OBJECT_NAME":"STARLINK-3819","TLE_LINE1":"1 52349U 22045U   23116.46187821  .00018441  00000-0  11740-2 0  9999"},{"BSTAR":"0.00149070000000","GP_ID":"230801009","RCS_SIZE":"LARGE","MEAN_MOTION_DDOT":"0.0000000000000","INCLINATION":"53.2158","TLE_LINE2":"2 52350  53.2158 223.6759 0001069  97.2142 262.8971 15.08839476 57576","RA_OF_ASC_NODE":"223.6759","REV_AT_EPOCH":"5757","NORAD_CAT_ID":"52350","OBJECT_NAME":"STARLINK-3754","TLE_LINE1":"1 52350U 22045V   23116.71213478  .00023516  00000-0  14907-2 0  9994","OBJECT_TYPE":"PAYLOAD","FILE":"3894261","ECCENTRICITY":"0.00010690","APOAPSIS":"540.487","EPHEMERIS_TYPE":"0","CLASSIFICATION_TYPE":"U","ARG_OF_PERICENTER":"97.2142","DECAY_DATE":null,"SEMIMAJOR_AXIS":"6917.882","MEAN_ELEMENT_THEORY":"SGP4","ELEMENT_SET_NO":"999","TIME_SYSTEM":"UTC","LAUNCH_DATE":"2022-04-29","SITE":"AFETR","PERIAPSIS":"539.007","OBJECT_ID":"2022-045V","MEAN_ANOMALY":"262.8971","MEAN_MOTION":"15.08839476","EPOCH":"2023-04-26T17:05:28.444992","MEAN_MOTION_DOT":"0.00023516","REF_FRAME":"TEME","COUNTRY_CODE":"US","PERIOD":"95.438","CENTER_NAME":"EARTH"},{"PERIAPSIS":"539.166","SITE":"AFETR","LAUNCH_DATE":"2022-04-29","TIME_SYSTEM":"UTC","ELEMENT_SET_NO":"999","MEAN_ELEMENT_THEORY":"SGP4","SEMIMAJOR_AXIS":"6917.908","DECAY_DATE":null,"ARG_OF_PERICENTER":"101.3917","CLASSIFICATION_TYPE":"U","CENTER_NAME":"EARTH","COUNTRY_CODE":"US","PERIOD":"95.438","REF_FRAME":"TEME","MEAN_MOTION_DOT":"0.00011773","EPOCH":"2023-04-26T16:49:32.631168","MEAN_MOTION":"15.08830902","MEAN_ANOMALY":"258.7174","OBJECT_ID":"2022-045X","RA_OF_ASC_NODE":"223.7230","TLE_LINE2":"2 52352  53.2149 223.7230 0000878 101.3917 258.7174 15.08830902 57571","INCLINATION":"53.2149","MEAN_MOTION_DDOT":"0.0000000000000","RCS_SIZE":"LARGE","GP_ID":"230801260","BSTAR":"0.00075670000000","EPHEMERIS_TYPE":"0","ECCENTRICITY":"0.00008780","APOAPSIS":"540.381","FILE":"3894261","OBJECT_TYPE":"PAYLOAD","TLE_LINE1":"1 52352U 22045X   23116.70107212  .00011773  00000-0  75670-3 0  9990","OBJECT_NAME":"STARLINK-3838","NORAD_CAT_ID":"52352","REV_AT_EPOCH":"5757"}];
